RAMSAT                  
1 48850U 98067SL  21239.32298834  .00009111  00000-0  16402-3 0  9999
2 48850  51.6434 350.2615 0004561  43.8289 316.3062 15.50588634 11505
SOAR                    
1 48851U 98067SM  21239.41075010  .00031083  00000-0  50137-3 0  9995
2 48851  51.6410 349.3421 0004598  23.0396 337.0800 15.52620890 11562
BD-28                   
1 48867U 98067SN  21239.32011699  .00010059  00000-0  17897-3 0  9991
2 48867  51.6438 350.2445 0003249  73.7436 286.3910 15.50791646 10254
MIR-SAT 1               
1 48868U 98067SP  21239.44699608  .00019370  00000-0  33165-3 0  9998
2 48868  51.6432 349.5911 0003110  35.0295 325.0899 15.51243985 10301
